[{"OBJECT_NAME":"STARLINK-4208","OBJECT_ID":"2022-062Q","EPOCH":"2026-03-09T06:31:15.923712","MEAN_MOTION":15.08834237,"ECCENTRICITY":0.0001393,"INCLINATION":53.2196,"RA_OF_ASC_NODE":35.9969,"ARG_OF_PERICENTER":90.0367,"MEAN_ANOMALY":270.0785,"EPHEMERIS_TYPE":0,"CLASSIFICATION_TYPE":"U","NORAD_CAT_ID":52844,"ELEMENT_SET_NO":999,"REV_AT_EPOCH":20572,"BSTAR":-7.3431997e-5,"MEAN_MOTION_DOT":-1.456e-5,"MEAN_MOTION_DDOT":0},{"OBJECT_NAME":"OBJECT H","OBJECT_ID":"2017-042H","EPOCH":"2026-03-09T21:54:40.929408","MEAN_MOTION":15.07257911,"ECCENTRICITY":0.00117342,"INCLINATION":97.4058,"RA_OF_ASC_NODE":233.05,"ARG_OF_PERICENTER":93.954,"MEAN_ANOMALY":266.303,"EPHEMERIS_TYPE":0,"CLASSIFICATION_TYPE":"U","NORAD_CAT_ID":42832,"ELEMENT_SET_NO":999,"REV_AT_EPOCH":47198,"BSTAR":0.00041037265,"MEAN_MOTION_DOT":6.138e-5,"MEAN_MOTION_DDOT":0}]
